NORAD_CAT_ID,OBJECT_NAME,OBJECT_TYPE,EPOCH,MEAN_MOTION,ECCENTRICITY,INCLINATION,RA_OF_ASC_NODE,ARG_OF_PERICENTER,MEAN_ANOMALY,BSTAR,MEAN_MOTION_DOT,MEAN_MOTION_DDOT,TLE_LINE0,TLE_LINE1,TLE_LINE2,SEMIMAJOR_AXIS,PERIOD,APOGEE,PERIGEE,DECAYED
50828.0,STARLINK-3290,PAYLOAD,2023-12-07 04:21:08,15.08836177,0.0001405,53.2169,265.8793,70.0022,290.1122,8.7446e-05,1.104e-05,0.0,0 STARLINK-3290,1 50828U 22001AB  23341.18134757  .00001104  00000-0  87446-4 0  9996,2 50828  53.2169 265.8793 0001405  70.0022 290.1122 15.08836177107362,6917.892,95.438,540.729,538.785,0.0
50828.0,STARLINK-3290,PAYLOAD,2023-12-08 02:36:32,15.08840264,0.0001286,53.2166,261.7197,74.2456,285.8678,0.00024609,3.631e-05,0.0,0 STARLINK-3290,1 50828U 22001AB  23342.10871011  .00003631  00000-0  24609-3 0  9998,2 50828  53.2166 261.7197 0001286  74.2456 285.8678 15.08840264106072,6917.88,95.438,540.634,538.855,0.0
50828.0,STARLINK-3290,PAYLOAD,2023-12-08 18:30:24,15.08831089,0.0001244,53.2159,258.7513,82.0817,278.0316,1.821e-05,2e-08,0.0,0 STARLINK-3290,1 50828U 22001AB  23342.77111668  .00000002  00000-0  18210-4 0  9997,2 50828  53.2159 258.7513 0001244  82.0817 278.0316 15.08831089107602,6917.908,95.438,540.633,538.912,0.0
50828.0,STARLINK-3290,PAYLOAD,2023-12-09 18:21:11,15.08847384,0.0001466,53.2167,254.2914,73.2777,286.8376,0.00031049,4.658e-05,0.0,0 STARLINK-3290,1 50828U 22001AB  23343.76471453  .00004658  00000-0  31049-3 0  9993,2 50828  53.2167 254.2914 0001466  73.2777 286.8376 15.08847384107754,6917.858,95.437,540.737,538.709,0.0
50828.0,STARLINK-3290,PAYLOAD,2023-12-10 03:53:29,15.08860737,0.0001546,53.2165,252.5059,71.0193,289.0967,0.00056169,8.668e-05,0.0,0 STARLINK-3290,1 50828U 22001AB  23344.16214855  .00008668  00000-0  56169-3 0  9994,2 50828  53.2165 252.5059 0001546  71.0193 289.0967 15.08860737107815,6917.817,95.436,540.751,538.613,0.0
50828.0,STARLINK-3290,PAYLOAD,2023-12-10 21:22:43,15.08849874,0.000271,53.2156,249.2279,120.5706,239.5554,0.00013917,1.928e-05,0.0,0 STARLINK-3290,1 50828U 22001AB  23344.89078608  .00001928  00000-0  13917-3 0  9994,2 50828  53.2156 249.2279 0002710 120.5706 239.5554 15.08849874106490,6917.85,95.437,541.59,537.84,0.0
50828.0,STARLINK-3290,PAYLOAD,2023-12-10 22:58:07,15.08846695,0.000234,53.2167,248.9323,115.4085,244.7149,0.00013438,1.851e-05,0.0,0 STARLINK-3290,1 50828U 22001AB  23344.95702719  .00001851  00000-0  13438-3 0  9991,2 50828  53.2167 248.9323 0002340 115.4085 244.7149 15.08846695107936,6917.86,95.437,541.344,538.106,0.0
50828.0,STARLINK-3290,PAYLOAD,2023-12-11 22:48:55,15.08824358,0.0002255,53.2166,244.4665,117.585,242.5371,0.001042,0.00016327,0.0,0 STARLINK-3290,1 50828U 22001AB  23345.95063662  .00016327  00000-0  10420-2 0  9990,2 50828  53.2166 244.4665 0002255 117.5850 242.5371 15.08824358106656,6917.928,95.439,541.353,538.233,0.0
50828.0,STARLINK-3290,PAYLOAD,2023-12-12 00:24:16,15.08863825,0.0001553,53.2162,244.1782,98.3484,261.7684,-0.00041611,-6.909e-05,0.0,0 STARLINK-3290,1 50828U 22001AB  23346.01685355 -.00006909  00000-0 -41611-3 0  9991,2 50828  53.2162 244.1782 0001553  98.3484 261.7684 15.08863825108090,6917.808,95.436,540.747,538.598,0.0
50828.0,STARLINK-3290,PAYLOAD,2023-12-12 21:04:17,15.08842671,0.0001505,53.2163,240.311,101.3309,258.7852,8.1115e-05,1.003e-05,0.0,0 STARLINK-3290,1 50828U 22001AB  23346.87798505  .00001003  00000-0  81115-4 0  9999,2 50828  53.2163 240.3110 0001505 101.3309 258.7852 15.08842671106796,6917.872,95.437,540.778,538.696,0.0
50828.0,STARLINK-3290,PAYLOAD,2023-12-13 00:15:04,15.08843132,0.0001476,53.2161,239.7158,98.6088,261.5071,7.4194e-05,8.93e-06,0.0,0 STARLINK-3290,1 50828U 22001AB  23347.01046434  .00000893  00000-0  74194-4 0  9998,2 50828  53.2161 239.7158 0001476  98.6088 261.5071 15.08843132108247,6917.871,95.437,540.757,538.715,0.0
50828.0,STARLINK-3290,PAYLOAD,2023-12-13 22:30:28,15.0883465,0.0001492,53.2156,235.5517,98.1455,261.9707,2.1898e-06,-2.53e-06,0.0,0 STARLINK-3290,1 50828U 22001AB  23347.93782967 -.00000253  00000-0  21898-5 0  9992,2 50828  53.2156 235.5517 0001492  98.1455 261.9707 15.08834650106956,6917.897,95.438,540.794,538.73,0.0
50828.0,STARLINK-3290,PAYLOAD,2023-12-14 00:05:51,15.08836265,0.0001457,53.2166,235.2542,93.998,266.1178,5.3326e-05,5.61e-06,0.0,0 STARLINK-3290,1 50828U 22001AB  23348.00407228  .00000561  00000-0  53326-4 0  9996,2 50828  53.2166 235.2542 0001457  93.9980 266.1178 15.08836265108392,6917.892,95.438,540.765,538.749,0.0
50828.0,STARLINK-3290,PAYLOAD,2023-12-14 20:45:52,15.08843785,0.0001449,53.2153,231.3892,98.7501,261.3655,0.00017113,2.437e-05,0.0,0 STARLINK-3290,1 50828U 22001AB  23348.86518648  .00002437  00000-0  17113-3 0  9996,2 50828  53.2153 231.3892 0001449  98.7501 261.3655 15.08843785108523,6917.869,95.437,540.736,538.731,0.0
50828.0,STARLINK-3290,PAYLOAD,2023-12-14 22:21:15,15.08846417,0.000146,53.2151,231.0924,95.8293,264.2866,0.00020898,3.04e-05,0.0,0 STARLINK-3290,1 50828U 22001AB  23348.93142529  .00003040  00000-0  20898-3 0  9990,2 50828  53.2151 231.0924 0001460  95.8293 264.2866 15.08846417107107,6917.861,95.437,540.736,538.716,0.0
50828.0,STARLINK-3290,PAYLOAD,2023-12-14 23:56:38,15.08848332,0.0001455,53.2152,230.7953,88.6962,271.4197,0.00023373,3.435e-05,0.0,0 STARLINK-3290,1 50828U 22001AB  23348.99766475  .00003435  00000-0  23373-3 0  9997,2 50828  53.2152 230.7953 0001455  88.6962 271.4197 15.08848332107119,6917.855,95.437,540.726,538.713,0.0
50828.0,STARLINK-3290,PAYLOAD,2023-12-15 19:01:16,15.08833397,0.00016,53.2157,227.2252,80.4746,279.6427,4.5964e-05,4.43e-06,0.0,0 STARLINK-3290,1 50828U 22001AB  23349.79255682  .00000443  00000-0  45964-4 0  9996,2 50828  53.2157 227.2252 0001600  80.4746 279.6427 15.08833397108661,6917.901,95.438,540.872,538.659,0.0
50828.0,STARLINK-3290,PAYLOAD,2023-12-15 22:12:03,15.08833172,0.0001525,53.2154,226.6319,81.8896,278.2269,4.8678e-05,4.87e-06,0.0,0 STARLINK-3290,1 50828U 22001AB  23349.92503761  .00000487  00000-0  48678-4 0  9998,2 50828  53.2154 226.6319 0001525  81.8896 278.2269 15.08833172107256,6917.901,95.438,540.821,538.711,0.0
50828.0,STARLINK-3290,PAYLOAD,2023-12-15 23:47:26,15.08832807,0.0001488,53.2152,226.3338,83.4288,276.6873,1.9059e-05,1.5e-07,0.0,0 STARLINK-3290,1 50828U 22001AB  23349.99127644  .00000015  00000-0  19059-4 0  9995,2 50828  53.2152 226.3338 0001488  83.4288 276.6873 15.08832807107261,6917.902,95.438,540.797,538.738,0.0
50828.0,STARLINK-3290,PAYLOAD,2023-12-16 20:27:26,15.08848264,0.0001676,53.2163,222.4663,70.0338,290.0835,0.00025038,3.7e-05,0.0,0 STARLINK-3290,1 50828U 22001AB  23350.85239357  .00003700  00000-0  25038-3 0  9994,2 50828  53.2163 222.4663 0001676  70.0338 290.0835 15.08848264108823,6917.855,95.437,540.88,538.561,0.0
50828.0,STARLINK-3290,PAYLOAD,2023-12-16 22:02:49,15.08849646,0.0001858,53.2155,222.1713,62.2691,297.8489,0.00030959,4.644e-05,0.0,0 STARLINK-3290,1 50828U 22001AB  23350.91863380  .00004644  00000-0  30959-3 0  9996,2 50828  53.2155 222.1713 0001858  62.2691 297.8489 15.08849646107402,6917.851,95.437,541.001,538.431,0.0
50828.0,STARLINK-3290,PAYLOAD,2023-12-17 20:18:13,15.08848131,0.0001588,53.2137,218.0102,73.6032,286.5134,0.00031188,4.68e-05,0.0,0 STARLINK-3290,1 50828U 22001AB  23351.84599249  .00004680  00000-0  31188-3 0  9994,2 50828  53.2137 218.0102 0001588  73.6032 286.5134 15.08848131108976,6917.856,95.437,540.819,538.622,0.0
50828.0,STARLINK-3290,PAYLOAD,2023-12-17 21:53:36,15.08850097,0.0001591,53.2136,217.7129,73.7915,286.3252,0.0003326,5.011e-05,0.0,0 STARLINK-3290,1 50828U 22001AB  23351.91223161  .00005011  00000-0  33260-3 0  9991,2 50828  53.2136 217.7129 0001591  73.7915 286.3252 15.08850097107551,6917.85,95.437,540.815,538.614,0.0
50828.0,STARLINK-3290,PAYLOAD,2023-12-18 20:09:00,15.08844741,0.0001762,53.2159,213.544,115.3533,244.7642,9.4322e-05,1.214e-05,0.0,0 STARLINK-3290,1 50828U 22001AB  23352.83958842  .00001214  00000-0  94322-4 0  9992,2 50828  53.2159 213.5440 0001762 115.3533 244.7642 15.08844741109120,6917.866,95.437,540.95,538.512,0.0
50828.0,STARLINK-3290,PAYLOAD,2023-12-19 19:59:47,15.08839601,0.0001807,53.2156,209.0846,120.8719,239.2451,-8.9713e-05,-1.716e-05,0.0,0 STARLINK-3290,1 50828U 22001AB  23353.83319009 -.00001716  00000-0 -89713-4 0  9996,2 50828  53.2156 209.0846 0001807 120.8719 239.2451 15.08839601109276,6917.882,95.438,540.997,538.497,0.0
50828.0,STARLINK-3290,PAYLOAD,2023-12-19 21:35:10,15.08839383,0.0001404,53.2152,208.7889,104.0493,256.0655,-4.6465e-05,-1.027e-05,0.0,0 STARLINK-3290,1 50828U 22001AB  23353.89943181 -.00001027  00000-0 -46465-4 0  9998,2 50828  53.2152 208.7889 0001404 104.0493 256.0655 15.08839383107853,6917.882,95.438,540.719,538.776,0.0
50828.0,STARLINK-3290,PAYLOAD,2023-12-20 19:50:35,15.08832252,0.0001416,53.2155,204.6278,105.0896,255.0253,2.3856e-05,9.2e-07,0.0,0 STARLINK-3290,1 50828U 22001AB  23354.82679889  .00000092  00000-0  23856-4 0  9991,2 50828  53.2155 204.6278 0001416 105.0896 255.0253 15.08832252109420,6917.904,95.438,540.749,538.789,0.0
50828.0,STARLINK-3290,PAYLOAD,2023-12-20 21:25:58,15.08832635,0.0001375,53.2153,204.3293,101.2333,258.8814,2.5652e-05,1.2e-06,0.0,0 STARLINK-3290,1 50828U 22001AB  23354.89303900  .00000120  00000-0  25652-4 0  9994,2 50828  53.2153 204.3293 0001375 101.2333 258.8814 15.08832635108002,6917.903,95.438,540.719,538.817,0.0
50828.0,STARLINK-3290,PAYLOAD,2023-12-22 19:32:09,15.08843678,0.0001245,53.2147,195.6994,83.9319,276.1815,0.00015618,2.199e-05,0.0,0 STARLINK-3290,1 50828U 22001AB  23356.81399810  .00002199  00000-0  15618-3 0  9991,2 50828  53.2147 195.6994 0001245  83.9319 276.1815 15.08843678109724,6917.869,95.437,540.595,538.873,0.0
50828.0,STARLINK-3290,PAYLOAD,2023-12-22 21:07:32,15.0884371,0.0001242,53.2149,195.4078,93.9828,266.1306,0.00015123,2.12e-05,0.0,0 STARLINK-3290,1 50828U 22001AB  23356.88023800  .00002120  00000-0  15123-3 0  9996,2 50828  53.2149 195.4078 0001242  93.9828 266.1306 15.08843710108304,6917.869,95.437,540.593,538.875,0.0
